#dP2024  3 14  0  0  0.00000000      96 __u+U IGS20 FIT  IAC
## 2305 345600.00000000   900.00000000 60383 0.0000000000000
+  129   C01C02C03C04C05C06C07C08C09C10C11C12C13C14C16C19C20
+        C21C22C23C24C25C26C27C28C29C30C32C33C34C35C36C37C38
+        C39C40C41C42C43C44C45C46C60E02E03E04E05E07E08E09E10
+        E11E12E13E14E15E18E19E21E24E25E26E27E30E31E33E34E36
+        G01G02G03G04G05G06G07G08G09G10G11G12G13G14G15G16G17
+        G18G19G20G21G22G23G24G25G26G27G28G29G30G31G32J02J03
+        J04J07R01R02R03R04R05R06R07R08R09R10R11R12R13R14R15
+        R16R17R18R19R20R21R22R23R24R25  0  0  0  0  0  0  0
++        17 16 17 17 16 10 10 10 11  9  9  9  9  9 10  7  8
++         7  7  7  7  7  7  7  7  7  7  7  7  7  8  7  7  8
++         9  8  8  7  7  7  7  8 17  4  5  4  5  4  5  5  4
++         4  4  5  4  5  4  4  4  4  4  4  4  4  5  4  5  5
++         5  4  4  4  4  4  4  4  4  4  4  4  4  4  4  4  4
++         4  4  4  4  4  4  4  4  4  4  4  4  4  4  4 10 11
++        11 17  7  6  6  6  6 16  6  6  6 15  6  6  8  6  6
++         6  6  6  7  8  6  6 15  6  9  0  0  0  0  0  0  0
%c M  cc GPS ccc cccc cccc cccc cccc ccccc ccccc ccccc ccccc
%c cc cc ccc ccc cccc cccc cccc cccc ccccc ccccc ccccc ccccc
%f  0.0000000  0.000000000  0.00000000000  0.000000000000000
%f  0.0000000  0.000000000  0.00000000000  0.000000000000000
%i    0    0    0    0      0      0      0      0         0
%i    0    0    0    0      0      0      0      0         0
/* INFORMATION & ANALYSIS CENTER (IAC)            RAPID DATA
/* S/V CLOCKS ARE ALIGNED TO GNSS TIME                      
/* G:C1WC2W R:C1PC2P E:C1XC5X C:C2IC6I J:C1CC2S             
/* PCV:IGS20_2290 OL/AL:FES2004  NONE     YN ORB:CoN CLK:CoN
*  2024 03 14 22 30  0.00000000
PC01 -34333.699028  24441.699002   -827.281462    887.832834
PC02   4423.215297  41960.347709    779.584024    512.286286
PC03 -14726.617147  39532.344166   -254.111512     55.359132
PC04 -39594.494591  14406.926570  -1052.514876    -36.476803
PC05  21926.121871  36021.489253    896.766488   -881.702461
PC06  -5560.472562  24130.556252  34200.031541    273.459419
PC07 -17616.003851  36299.014684 -12518.272399   -915.182668
PC08  -2527.738766  37360.425093 -19169.914461     61.183740
PC09   2539.135533  26600.424412  33200.311377   -621.413849
PC10 -11006.362923  36511.856046 -18237.275017     44.968286
PC11 -26533.396265   4082.997174  -7561.656005    459.996384
PC12 -24585.407284  -7723.807275  10737.522648   -213.064051
PC13   3086.137900  40261.381784 -11460.223906    424.848135
PC14 -19434.506883  12731.089674 -15486.564799    406.977959
PC16  -9890.571740  22135.869012  34766.427973   -396.464157
PC19  17585.852448 -20292.948282   7569.105962   -919.340520
PC20  18558.902483  -4742.901545  20296.148233   -257.301815
PC21  -8328.780206 -15155.620759 -21875.146120   -961.356776
PC22   6434.354296 -25094.141700 -10331.681428    -74.797203
PC23   2135.874755  23981.572400  14104.256641   -776.506996
PC24 -19772.627801  -8550.268862  17732.443584    954.861660
PC25 -11882.470814  11537.658366  22444.100087    349.611446
PC26 -16295.913590 -22471.442446   3018.186509   -262.826823
PC27  18189.047319  12242.297500 -17292.223899    284.725026
PC28    151.887052  16006.463869 -22854.914625    217.141407
PC29  21054.152616 -10988.841233  14651.707975    254.619500
PC30  27753.691797   1114.333331  -2842.456252    -38.379887
PC32   8390.214421  15212.894602  21862.696817   -583.099813
PC33 -17479.947664  20396.682656  -7596.518628   -957.888240
PC34 -27862.391864    -60.661316   1288.240122    390.187708
PC35   -504.623690 -16076.749106  22789.447738    411.100314
PC36  12367.792050 -10937.876634 -22483.543975     18.358476
PC37  15599.448951  22967.034214  -2680.061912   -944.735630
PC38  -7753.069011  33215.080586 -24650.626521    142.747833
PC39 -15925.569677  19820.376440  33663.409567     -7.566549
PC40 -25135.136607  31961.576871 -11690.870847    -60.794299
PC41  -6915.650125  25291.849877   9637.667067   -905.669048
PC42 -18150.157574   3117.995777 -20929.005022   -447.142149
PC43 -21734.451522  10591.627201 -13925.008573     64.137378
PC44 -18471.696274 -11703.880630  17301.116336    413.360287
PC45  -2231.274607 -24007.376872 -14077.888999    -75.596332
PC46  19553.450546   7700.381984 -18352.757576   -131.662378
PC60   7312.753559  41518.093825   -669.319021     -0.417090
PE02   1935.737758 -29546.377966    118.704100    111.226019
PE03   6070.534945 -19654.901451 -21277.017708   -100.317661
PE04  14964.779194  10671.727140  23213.708475   -349.738937
PE05  23213.787603 -17000.763939  -6933.564130   4729.091222
PE07 -26805.850733   4100.941010 -11868.034131   -108.929627
PE08 -14223.459189 -11029.997875 -23495.631719   -238.953247
PE09  26730.238834  -4058.141901  12040.032326   -370.572534
PE10  25666.132423  14358.982459   3372.339843   -609.323771
PE11  25606.644676   6763.474395  13234.112257   3169.871874
PE12  21859.457715  19095.568268  -5877.831641   -948.643273
PE13 -25714.935723  -7272.599910 -12707.139146    -20.539431
PE14 -15957.959691  22727.755444 -16610.857864     66.520390
PE15 -21540.447895 -19242.923484   6443.492721    -91.243118
PE18   5193.118416 -17007.275968  15951.117071    435.766140
PE19  -8494.777489  19819.262570  20290.537430   -432.562661
PE21 -12865.206484  20827.319759  16629.101013   -583.960869
PE24  16860.919279    888.491348 -24335.187367   -651.300631
PE25  13045.908696 -20491.539181 -16922.113290      2.115160
PE26 -14338.950031   9345.306697 -24142.521454    396.518457
PE27 -16819.768992   -446.501193  24346.402426   -298.792819
PE30 -10666.767675 -21399.039234  17440.511164    -95.059331
PE31  10814.685053  21181.876779 -17620.588564    -18.270418
PE33   4263.018197  19587.221044 -21776.114742      9.012209
PE34  -4848.979675 -19745.015008  21509.800164    -99.984655
PE36  14812.546852  -8728.436649  24102.167489   -199.268829
PG01  23510.477359  11427.059285   5294.087769    173.989559
PG02  22149.556999  14342.307839  -3604.294467   -470.237658
PG03  12043.284127  14044.224667  18960.450099    252.245783
PG04  17962.477268   5795.110346  18757.725416    314.967331
PG05  -6601.890326 -23975.911908  -9367.266825   -165.403384
PG06   7993.799805 -12220.540417  22251.161576    367.725868
PG07  22567.457836   2796.693131 -13604.034942    -84.350562
PG08  10548.795124  11601.848832 -21573.903392     55.092916
PG09  24194.750340  -6153.578236   9068.948838    124.705031
PG10 -10681.529615  18899.402762 -14870.471205     -0.410569
PG11  -4368.101424 -18634.249106  18459.780893   -606.729961
PG12 -11022.441789 -15609.433868  18186.577232   -487.193776
PG13   -279.366893 -15617.623895 -21653.969614    634.146802
PG14  13335.562674 -15234.673778 -17065.176174    350.593160
PG15 -11846.777607 -11053.849769 -21553.569449    137.686413
PG16    372.574263  25853.591769  -5235.744802   -341.064066
PG17  22730.255619 -13372.354619   4214.118686    713.676760
PG18 -21708.779185  -1864.401513 -15302.627621   -575.551733
PG19  17135.410276 -15803.884883  12192.020690    454.011441
PG20   -892.746141 -26373.740465   3756.277718    383.921969
PG21  19482.130908  16561.279178  -8393.433710    131.339020
PG22  10314.881368 -22045.963089 -10547.537203     15.937232
PG23 -14405.068537   6574.930495 -21267.486755    177.200628
PG24 -20627.712509 -15915.187274  -6598.045023   -446.306382
PG25 -15016.315491  -4304.109229  21165.569730    491.301088
PG26  -4518.697220  24879.496729   7335.903174    179.466604
PG27  -2478.954075  17245.174515 -20203.701868    -11.787233
PG28 -10525.153464  11286.303866  21597.818588   -164.618717
PG29 -24212.486735   2496.097739  10700.280473   -604.797206
PG30  15960.618878  -7223.439984 -19898.992891   -419.701038
PG31   -913.441147  16680.532065  20345.823888   -227.984017
PG32 -20129.488235  15966.208059   6499.190304   -615.801958
PJ02 -30195.725395  25596.531543  19572.747380     -2.917967
PJ03 -28394.979211  15903.027259 -22191.486637     -0.192476
PJ04 -23468.547239  34458.206114  -1432.308478     50.684301
PJ07 -25351.691095  33685.228627     52.600418     -0.004276
PR01  11602.974044   2693.696958  22561.568785     79.697771
PR02  18454.525603 -12132.871641  12870.719514    -22.587026
PR03  14745.742750 -20413.537703  -4196.141408     96.365290
PR04   3383.696645 -17087.655687 -18603.824708    227.577603
PR05  -9943.607006  -4786.583611 -22978.007172    128.399986
PR06 -18055.357161  13665.410906 -11732.557445   -154.744271
PR07 -14212.865950  20501.805607   5249.729722     77.952900
PR08  -2883.083014  17024.150728  18828.379040    -74.723903
PR09 -11434.372657   1737.069462  22745.028729    175.353720
PR10  -3905.474936  16061.527712  19384.735435   -135.912437
PR11   6734.264546  24199.389986   4496.762845     31.244465
PR12  13277.215642  16425.335059 -14273.997628     37.804561
PR13  12009.979948   1204.215161 -22490.051769    -45.297846
PR14   2726.650182 -17786.682733 -18064.858164     26.212835
PR15  -7320.489472 -24254.919786  -2929.327017     81.354574
PR16 -13251.326683 -16579.349674  14127.384691     24.019136
PR17  10302.370730  -8207.130792  21844.406186     69.034230
PR18  -7399.346012 -11413.958966  21578.950491    132.167177
PR19 -20288.373360 -10075.965442  11722.152061   -269.356943
PR20 -23723.642127  -1350.414829  -9202.763128   -109.813040
PR21 -10265.190876   8079.133490 -21913.119312    -84.570845
PR22   8241.822461  12024.877145 -20910.570292    112.781860
PR23  22489.201504   8567.947706  -8479.827782   -114.891179
PR24  23605.771275   -137.794882   9671.771549    -47.792592
PR25 -10564.043204   8112.591904 -21752.194327    -22.758557
EOF
